Site,Code,Dataset,State,County,Latitude,Longitude,Elevation,StartDate,EndDate,NumPOCs,ID
Acadia NP,ACAD1,IMPFSPED,ME,23009,44.37710,-68.26100,157,03/02/1988,10/29/2018,1,1
Addison Pinnacle,ADPI1,IMPFSPED,NY,36101,42.09120,-77.20990,512,04/04/2001,06/28/2010,1,144
Agua Tibia,AGTI1,IMPFSPED,CA,06065,33.46360,-116.97060,507,12/20/2000,10/29/2018,1,100
Ambler,AMBL1,IMPFSPED,AK,02188,67.09934,-157.86280,77,09/03/2003,11/29/2004,1,524
Arches NP,ARCH1,IMPFSPED,UT,49019,38.78330,-109.58330,1722,03/02/1988,12/29/1999,1,167
Arendtsville,AREN1,IMPFSPED,PA,42001,39.92320,-77.30790,267,04/04/2001,12/31/2010,1,138
Badlands NP,BADL1,IMPFSPED,SD,46071,43.74350,-101.94120,736,03/02/1988,10/29/2018,1,59
Baengnyeong Island,BYIS1,IMPFSPED,-999,-999,37.96590,124.63080,100,03/20/2013,10/29/2018,2,98296
Baengnyeong Island Co-located A Module,BYISX,IMPFSPED,-999,-999,37.96590,124.63080,100,04/23/2014,07/29/2015,1,98752
Baltimore,BALT1,IMPFSPED,MD,24005,39.25470,-76.70930,78,06/02/2004,12/31/2006,1,25532
Bandelier NM,BAND1,IMPFSPED,NM,35028,35.77970,-106.26640,1988,03/02/1988,10/29/2018,1,33
Barrier Lake,BALA1,IMPFSPED,AB,-999,51.02900,-115.03360,1391,01/15/2011,03/29/2017,1,94952
Big Bend NP,BIBE1,IMPFSPED,TX,48043,29.30270,-103.17800,1066,03/02/1988,10/29/2018,2,31
Bliss SP (TRPA),BLIS1,IMPFSPED,CA,06017,38.97610,-120.10250,2130,09/01/1990,10/29/2018,1,95
Blue Mounds,BLMO1,IMPFSPED,MN,27133,43.71580,-96.19130,473,06/01/2002,12/29/2015,2,147
Bondville,BOND1,IMPFSPED,IL,17019,40.05200,-88.37330,263,03/08/2001,10/29/2018,1,140
Bosque del Apache,BOAP1,IMPFSPED,NM,35053,33.86950,-106.85200,1389,04/15/2000,10/29/2018,1,38
Boulder Lake,BOLA1,IMPFSPED,WY,56035,42.84648,-109.63973,2296,08/26/2009,10/29/2018,1,59989
Boundary Waters Canoe Area,BOWA1,IMPFSPED,MN,27075,47.94660,-91.49550,526,06/01/1991,10/29/2018,1,23
Breton,BRET1,IMPFSPED,LA,22075,29.11890,-89.20660,11,08/16/2000,08/29/2005,1,20
Breton Island,BRIS1,IMPFSPED,LA,22075,30.10863,-89.76168,-7,01/16/2008,10/29/2018,2,42018
Bridger Wilderness,BRID1,IMPFSPED,WY,56035,42.97490,-109.75790,2626,03/02/1988,10/29/2018,1,65
Bridgton,BRMA1,IMPFSPED,ME,23005,44.10740,-70.72920,233,03/14/2001,12/29/2015,1,130
Brigantine NWR,BRIG1,IMPFSPED,NJ,34001,39.46500,-74.44920,5,09/04/1991,10/29/2018,1,5
Brooklyn Lake,BRLA1,IMPFSPED,WY,56001,41.36620,-106.24180,3196,07/31/1993,01/31/2004,1,115
Bryce Canyon NP,BRCA1,IMPFSPED,UT,49017,37.61840,-112.17360,2481,03/02/1988,10/29/2018,1,49
Cabinet Mountains,CABI1,IMPFSPED,MT,30089,47.95490,-115.67090,1441,07/26/2000,10/29/2018,1,75
Cadiz,CADI1,IMPFSPED,KY,21221,36.78420,-87.85010,191,03/08/2001,12/31/2010,1,142
Caney Creek,CACR1,IMPFSPED,AR,05113,34.45440,-94.14290,683,06/24/2000,10/29/2018,1,29
Canyonlands NP,CANY1,IMPFSPED,UT,49037,38.45870,-109.82100,1798,03/02/1988,10/29/2018,1,50
Cape Cod,CACO1,IMPFSPED,MA,25001,41.97580,-70.02420,49,04/04/2001,10/29/2018,1,131
Cape Romain NWR,ROMA1,IMPFSPED,SC,45019,32.94100,-79.65720,4,09/03/1994,10/29/2018,1,15
Capitol Reef NP,CAPI1,IMPFSPED,UT,49055,38.30220,-111.29260,1896,04/19/2000,10/29/2018,1,52
Carlsbad Caverns,CAVE1,IMPFSPED,NM,35015,32.17830,-104.44376,1355,07/30/2017,10/29/2018,1,101321
Casco Bay,CABA1,IMPFSPED,ME,23005,43.83250,-70.06440,26,03/14/2001,10/29/2018,1,129
Cedar Bluff,CEBL1,IMPFSPED,KS,20195,38.77010,-99.76340,665,06/01/2002,10/29/2018,1,156
Chassahowitzka NWR,CHAS1,IMPFSPED,FL,12017,28.74840,-82.55490,4,03/03/1993,10/29/2018,1,18
Cherokee Nation,CHER1,IMPFSPED,OK,40071,36.95620,-97.03130,342,09/02/2002,04/20/2010,1,158
Chicago,CHIC1,IMPFSPED,IL,17031,41.75140,-87.71350,194,09/03/2003,08/29/2005,1,525
Chiricahua NM,CHIR1,IMPFSPED,AZ,04003,32.00940,-109.38900,1554,03/02/1988,10/29/2018,1,39
Cloud Peak,CLPE1,IMPFSPED,WY,56019,44.33350,-106.95650,2470,06/01/2002,07/29/2015,1,163
Cohutta,COHU1,IMPFSPED,GA,13213,34.78520,-84.62650,735,06/03/2000,10/29/2018,1,12
Columbia Gorge #1,COGO1,IMPFSPED,WA,53039,45.56926,-122.21029,230,09/18/1996,10/30/2011,1,145
Columbia River Gorge,CORI1,IMPFSPED,WA,53039,45.66440,-121.00080,178,06/02/1993,10/29/2018,1,113
Connecticut Hill,COHI1,IMPFSPED,NY,36109,42.40090,-76.65340,519,04/04/2001,06/25/2006,1,136
Crater Lake NP,CRLA1,IMPFSPED,OR,41035,42.89580,-122.13610,1996,03/02/1988,10/29/2018,1,86
Craters of the Moon NM,CRMO1,IMPFSPED,ID,16023,43.46050,-113.55510,1817,03/04/1992,10/29/2018,1,69
Crescent Lake,CRES1,IMPFSPED,NE,31069,41.76270,-102.43360,1207,06/01/2002,12/29/2015,1,153
Death Valley NP,DEVA1,IMPFSPED,CA,06027,36.50890,-116.84780,130,09/04/1993,04/28/2013,1,119
Denali NP,DENA1,IMPFSPED,AK,02068,63.72330,-148.96750,658,03/02/1988,10/29/2018,1,102
Detroit,DETR1,IMPFSPED,MI,26163,42.22860,-83.20850,179,09/03/2003,10/29/2018,1,526
Dolly Sods Wilderness,DOSO1,IMPFSPED,WV,54093,39.10530,-79.42610,1182,09/04/1991,10/29/2018,1,8
Dome Lands Wilderness,DOLA1,IMPFSPED,CA,06029,35.69870,-118.20210,914,06/01/1994,12/29/1999,1,109
Dome Lands Wilderness,DOME1,IMPFSPED,CA,06029,35.72780,-118.13770,927,02/02/2000,10/29/2018,1,110
Douglas,DOUG1,IMPFSPED,AZ,04003,31.34921,-109.53973,1230,06/02/2004,10/30/2015,1,25534
Egbert,EGBE1,IMPFSPED,ON,-999,44.23115,-79.78322,251,09/01/2005,10/29/2018,1,25540
El Dorado Springs,ELDO1,IMPFSPED,MO,29039,37.70090,-94.03480,297,03/03/2002,12/29/2015,1,157
Ellis,ELLI1,IMPFSPED,OK,40045,36.08530,-99.93540,697,03/03/2002,10/18/2015,1,159
Everglades NP,EVER1,IMPFSPED,FL,12086,25.39100,-80.68060,1,09/03/1988,10/29/2018,2,19
Flat Tops,FLTO1,IMPFSPED,CO,08103,39.91530,-107.63450,2593,10/27/2011,10/29/2018,1,94959
Flathead,FLAT1,IMPFSPED,MT,30047,47.77340,-114.26900,1580,06/01/2002,10/29/2018,1,162
Forest County Potawatomi Community,FCPC1,IMPFSPED,WI,55041,45.56495,-88.80838,564,11/17/2016,10/29/2018,1,101299
Fort Peck,FOPE1,IMPFSPED,MT,30085,48.30800,-105.10220,638,06/01/2002,10/29/2018,1,160
Fresno,FRES1,IMPFSPED,CA,06019,36.78180,-119.77320,100,09/03/2004,10/29/2018,1,25541
Frostburg Reservoir (Big Piney Run),FRRE1,IMPFSPED,MD,24023,39.70580,-79.01220,767,03/01/2004,10/29/2018,2,25535
Gates of the Arctic NP,GAAR1,IMPFSPED,AK,02261,66.90250,-151.51700,196,11/02/2008,10/30/2015,1,448
Gates of the Mountains,GAMO1,IMPFSPED,MT,30049,46.82620,-111.71070,2387,07/26/2000,10/29/2018,2,74
Gila Wilderness,GICL1,IMPFSPED,NM,35003,33.22040,-108.23510,1775,03/02/1994,10/29/2018,1,42
Glacier NP,GLAC1,IMPFSPED,MT,30029,48.51050,-113.99660,975,03/02/1988,10/29/2018,1,72
Great Basin NP,GRBA1,IMPFSPED,NV,32033,39.00520,-114.21610,2065,03/04/1992,10/29/2018,1,117
Great Gulf Wilderness,GRGU1,IMPFSPED,NH,33007,44.30820,-71.21770,453,06/03/1995,10/29/2018,1,4
Great River Bluffs,GRRI1,IMPFSPED,MN,27169,43.93730,-91.40520,370,06/01/2002,10/29/2018,1,146
Great Sand Dunes NM,GRSA1,IMPFSPED,CO,08003,37.72490,-105.51850,2498,03/02/1988,10/29/2018,1,53
Great Smoky Mountains NP,GRSM1,IMPFSPED,TN,47009,35.63340,-83.94160,810,03/02/1988,10/29/2018,1,10
Great Smoky Mountains NP (PM10 Speciation),GRSM9,IMPFSPED,TN,-999,35.63340,-83.94170,815,01/01/2005,04/28/2005,1,518
Guadalupe Mountains NP,GUMO1,IMPFSPED,TX,48109,31.83300,-104.80940,1672,03/02/1988,10/29/2018,1,32
Haleakala Crater,HACR1,IMPFSPED,HI,-999,20.75850,-156.24790,2158,01/24/2007,10/29/2018,1,39350
Haleakala NP,HALE1,IMPFSPED,HI,15009,20.80860,-156.28230,1153,12/01/1990,05/30/2012,1,108
Hance Camp at Grand Canyon NP,GRCA2,IMPFSPED,AZ,04005,35.97310,-111.98410,2267,03/02/1996,10/29/2018,1,48
Hawaii Volcanoes NP,HAVO1,IMPFSPED,HI,15001,19.43090,-155.25790,1258,03/02/1988,10/29/2018,1,107
Hells Canyon,HECA1,IMPFSPED,OR,41063,44.97020,-116.84380,655,09/03/2000,10/29/2018,1,77
Hercules-Glades,HEGL1,IMPFSPED,MO,29213,36.61380,-92.92210,404,03/02/2001,10/29/2018,2,28
Hillside,HILL1,IMPFSPED,AZ,04025,34.42890,-112.96280,1510,04/19/2001,05/31/2005,1,124
Hoover,HOOV1,IMPFSPED,CA,06051,38.08810,-119.17710,2560,06/06/2001,10/29/2018,2,97
Hopi Point #1,GRCA1,IMPFSPED,AZ,04005,36.06580,-112.15390,2164,03/02/1988,12/29/1999,1,171
Houston Deer Park #2,HOUS1,IMPFSPED,TX,48201,29.66980,-95.12850,7,03/01/2004,08/29/2005,2,25536
Ike's Backbone,IKBA1,IMPFSPED,AZ,04025,34.34050,-111.68320,1297,03/29/2000,10/29/2018,1,46
Indian Gardens,INGA1,IMPFSPED,AZ,04005,36.07780,-112.12880,1166,09/02/1989,05/13/2013,1,118
Is 52,NEYO1,IMPFSPED,NY,36005,40.81610,-73.90190,45,08/01/2004,06/07/2010,1,25537
Isle Royale NP,ISLE1,IMPFSPED,MI,26083,47.45960,-88.14910,182,11/17/1999,10/29/2018,1,173
Isle Royale NP,ISRO1,IMPFSPED,MI,26083,47.91670,-89.15000,213,06/01/1988,12/29/1999,1,25
James River Face Wilderness,JARI1,IMPFSPED,VA,51163,37.62660,-79.51250,289,06/03/2000,10/29/2018,1,7
Jarbidge Wilderness,JARB1,IMPFSPED,NV,32007,41.89260,-115.42610,1869,03/02/1988,10/29/2018,2,68
Jefferson NF,JEFF1,IMPFSPED,VA,51163,37.61670,-79.48330,219,09/03/1994,02/26/2000,1,174
Joshua Tree NP,JOSH1,IMPFSPED,CA,06071,34.06957,-116.38895,1235,02/23/2000,10/29/2018,2,175
Joshua Tree NP,JOTR1,IMPFSPED,CA,06071,34.06955,-116.38899,1228,09/04/1991,12/29/1999,1,101
Kaiser,KAIS1,IMPFSPED,CA,06019,37.22070,-119.15460,2597,01/26/2000,10/29/2018,1,111
Kalmiopsis,KALM1,IMPFSPED,OR,41033,42.55200,-124.05890,80,03/11/2000,10/29/2018,1,89
Kenai Peninsula Borough,KPBO1,IMPFSPED,AK,02122,60.01232,-151.71149,5,08/19/2015,10/29/2018,1,100878
Lake Sugema,LASU1,IMPFSPED,IA,19177,40.68830,-91.98830,210,05/08/2002,11/29/2004,1,25542
Lake Sugema,LASU2,IMPFSPED,IA,-999,40.69320,-92.00590,229,12/02/2004,10/29/2018,1,148
Lake Tahoe Community College,LTCC1,IMPFSPED,CA,06017,38.92480,-119.97990,1935,02/19/2014,10/29/2018,1,98751
Lassen Volcanic NP,LAVO1,IMPFSPED,CA,06089,40.53980,-121.57680,1732,03/02/1988,10/29/2018,2,90
Lava Beds NM,LABE1,IMPFSPED,CA,06093,41.71170,-121.50680,1459,03/29/2000,10/29/2018,1,87
Lawrenceville,PITT1,IMPFSPED,PA,42003,40.46540,-79.96070,268,03/01/2004,10/29/2018,1,25539
Linville Gorge,LIGO1,IMPFSPED,NC,37011,35.97230,-81.93310,968,04/01/2000,10/29/2018,1,13
Livonia,LIVO1,IMPFSPED,IN,18175,38.53460,-86.26040,281,03/08/2001,12/31/2010,1,141
Londonderry,LOND1,IMPFSPED,NH,-999,42.86240,-71.38010,124,01/03/2011,10/29/2018,1,94953
Lone Peak Wilderness,LOPE1,IMPFSPED,UT,49049,40.44490,-111.70810,1768,12/01/1993,08/29/2001,1,116
Lostwood,LOST1,IMPFSPED,ND,38013,48.64190,-102.40220,696,12/15/1999,10/29/2018,1,62
Lye Brook Wilderness,LYBR1,IMPFSPED,VT,50003,43.14820,-73.12680,1015,09/04/1991,09/30/2012,1,3
Lye Brook Wilderness,LYEB1,IMPFSPED,VT,50025,42.95610,-72.90980,882,01/01/2012,10/29/2018,1,98214
Lynden,LYND1,IMPFSPED,WA,53073,48.95330,-122.55860,28,10/16/1996,12/29/1999,1,176
M.K. Goddard,MKGO1,IMPFSPED,PA,42085,41.42690,-80.14530,379,04/04/2001,12/31/2010,1,137
Makah Tribe,MAKA1,IMPFSPED,WA,-999,48.37185,-124.59500,-999,09/02/2006,10/29/2010,1,39342
Makah Tribe Site #2,MAKA2,IMPFSPED,WA,-999,48.29782,-124.62488,480,11/01/2010,10/29/2018,1,77389
Mammoth Cave NP,MACA1,IMPFSPED,KY,21061,37.13180,-86.14790,235,09/04/1991,10/29/2018,2,9
Martha's Vineyard,MAVI1,IMPFSPED,MA,25007,41.33090,-70.78460,2,12/01/2002,10/29/2018,1,133
Meadview,MEAD1,IMPFSPED,AZ,04015,36.01930,-114.06840,902,09/04/1991,10/29/2018,1,125
Medicine Lake,MELA1,IMPFSPED,MT,30091,48.48710,-104.47570,606,12/15/1999,10/29/2018,2,63
Mesa Verde NP,MEVE1,IMPFSPED,CO,08083,37.19840,-108.49070,2172,03/02/1988,10/29/2018,2,54
Mingo,MING1,IMPFSPED,MO,29207,36.97170,-90.14320,111,06/03/2000,10/29/2018,1,26
Mohawk Mt.,MOMO1,IMPFSPED,CT,09005,41.82140,-73.29730,521,09/13/2001,10/29/2018,1,134
Monture,MONT1,IMPFSPED,MT,30077,47.12220,-113.15440,1282,03/29/2000,10/29/2018,1,73
Moosehorn NWR,MOOS1,IMPFSPED,ME,23029,45.12590,-67.26610,77,12/03/1994,10/29/2018,1,2
Mount Baldy,BALD1,IMPFSPED,AZ,04001,34.05840,-109.44060,2508,03/01/2000,10/29/2018,1,43
Mount Hood,MOHO1,IMPFSPED,OR,41005,45.28880,-121.78370,1531,03/15/2000,10/29/2018,1,85
Mount Rainier NP,MORA1,IMPFSPED,WA,53053,46.75830,-122.12440,439,03/02/1988,10/29/2018,1,78
Mount Zirkel Wilderness,MOZI1,IMPFSPED,CO,08057,40.53830,-106.67660,3243,06/01/1994,10/29/2018,1,58
Nebraska NF,NEBR1,IMPFSPED,NE,31171,41.88880,-100.33870,883,06/01/2002,10/29/2018,1,151
Nogales,NOGA1,IMPFSPED,AZ,04023,31.33745,-110.93715,1172,10/27/2015,10/29/2018,1,100879
North Absaroka,NOAB1,IMPFSPED,WY,56029,44.74480,-109.38160,2482,01/26/2000,10/29/2018,1,67
North Birmingham,BIRM1,IMPFSPED,AL,01073,33.55310,-86.81480,175,03/01/2004,10/29/2018,1,25533
North Cascades,NOCA1,IMPFSPED,WA,53073,48.73160,-121.06460,568,07/30/1997,10/29/2018,1,81
Northern Cheyenne,NOCH1,IMPFSPED,MT,30087,45.64950,-106.55740,1283,06/01/2002,10/29/2018,1,161
Okefenokee NWR,OKEF1,IMPFSPED,GA,13049,30.74050,-82.12830,48,09/04/1991,10/29/2018,1,16
Old Town,OLTO1,IMPFSPED,ME,23019,44.93340,-68.64570,51,06/27/2001,05/29/2006,1,127
Olympic,OLYM1,IMPFSPED,WA,53009,48.00650,-122.97270,599,07/12/2001,10/29/2018,2,83
Omaha,OMAH1,IMPFSPED,NE,31173,42.14870,-96.43180,429,06/02/2003,08/04/2008,1,514
Organ Pipe,ORPI1,IMPFSPED,AZ,04019,31.95060,-112.80160,504,12/01/2002,10/29/2018,1,123
Owens Valley,OWVL1,IMPFSPED,CA,06027,37.36070,-118.33080,1234,06/27/2013,10/29/2018,1,98297
Pack Monadnock Summit,PACK1,IMPFSPED,NH,33011,42.86190,-71.87860,695,10/03/2007,10/29/2018,1,41880
Pasayten,PASA1,IMPFSPED,WA,53047,48.38770,-119.92750,1627,11/02/2000,10/29/2018,1,82
Penobscot,PENO1,IMPFSPED,ME,23019,44.94798,-68.64786,45,01/11/2006,10/29/2018,1,25679
Petersburg,PETE1,IMPFSPED,AK,02280,56.61076,-132.81234,0,07/02/2004,09/28/2009,1,25538
Petrified Forest NP,PEFO1,IMPFSPED,AZ,04017,35.07770,-109.76920,1766,03/02/1988,10/29/2018,1,41
Phoenix,PHOE1,IMPFSPED,AZ,04013,33.50380,-112.09580,342,04/19/2001,10/29/2018,1,166
Phoenix Colocated Sampler,PHOE5,IMPFSPED,AZ,04013,33.50380,-112.09580,342,01/01/2005,10/29/2018,2,39352
Pinnacles NM,PINN1,IMPFSPED,CA,06069,36.48330,-121.15680,302,03/02/1988,10/29/2018,1,92
Point Reyes National Seashore,PORE1,IMPFSPED,CA,06041,38.12240,-122.90850,97,03/02/1988,10/29/2018,1,91
Presque Isle,PRIS1,IMPFSPED,ME,23003,46.69640,-68.03330,165,03/08/2001,10/29/2018,1,126
Proctor Maple R. F.,PMRF1,IMPFSPED,VT,50007,44.52840,-72.86880,401,12/01/1993,10/29/2018,2,128
Puget Sound,PUSO1,IMPFSPED,WA,53033,47.56960,-122.31190,97,03/02/1996,10/29/2018,1,165
Quabbin Summit,QURE1,IMPFSPED,MA,25015,42.29850,-72.33460,317,04/04/2001,12/29/2015,2,132
Quaker City,QUCI1,IMPFSPED,OH,39121,39.94280,-81.33780,366,04/04/2001,10/29/2018,1,139
Queen Valley,QUVA1,IMPFSPED,AZ,04021,33.29390,-111.28580,661,04/19/2001,12/29/2015,1,122
Redwood NP,REDW1,IMPFSPED,CA,06015,41.56080,-124.08390,243,03/02/1988,10/29/2018,1,88
Ripple Creek,RICR1,IMPFSPED,CO,08103,40.08650,-107.31410,2934,03/02/2009,10/30/2011,1,25552
Rocky Mountain NP,ROMO1,IMPFSPED,CO,08069,40.27830,-105.54570,2760,09/01/1990,10/29/2018,1,57
Rocky Mountain NP HQ,RMHQ1,IMPFSPED,CO,08069,40.36240,-105.56380,2408,03/02/1988,12/29/1999,1,182
Rubidoux,RUBI1,IMPFSPED,CA,06065,33.99960,-117.41610,247,09/03/2004,08/29/2005,1,25543
Sac and Fox,SAFO1,IMPFSPED,KS,20013,39.97910,-95.56820,293,06/01/2002,06/29/2011,2,154
Saguaro NM,SAGU1,IMPFSPED,AZ,04019,32.17460,-110.73710,941,06/01/1988,10/29/2018,1,40
Saguaro West,SAWE1,IMPFSPED,AZ,04019,32.24860,-111.21780,714,10/31/2001,10/29/2018,2,121
Salmon NF,SALM1,IMPFSPED,ID,16059,45.15880,-114.02600,2788,12/01/1993,11/05/2000,1,114
Salt Creek,SACR1,IMPFSPED,NM,35005,33.45980,-104.40420,1072,04/08/2000,10/29/2018,1,36
San Andres,SAAN1,IMPFSPED,NM,35013,32.68690,-106.48440,1326,07/30/1997,02/26/2000,1,184
San Gabriel,SAGA1,IMPFSPED,CA,06037,34.29690,-118.02820,1791,12/03/2001,10/29/2018,1,93
San Gorgonio Wilderness,SAGO1,IMPFSPED,CA,06071,34.19390,-116.91320,1726,03/02/1988,10/29/2018,1,99
San Pedro Parks,SAPE1,IMPFSPED,NM,35039,36.01390,-106.84470,2935,08/16/2000,10/29/2018,1,34
San Rafael,RAFA1,IMPFSPED,CA,06083,34.73390,-120.00740,956,02/02/2000,10/29/2018,1,94
Sawtooth NF,SAWT1,IMPFSPED,ID,16037,44.17050,-114.92710,1990,12/01/1993,10/29/2018,1,70
Scoville,SCOV1,IMPFSPED,ID,16023,107.63450,39.91530,1500,03/04/1992,02/26/2000,1,185
Seney,SENE1,IMPFSPED,MI,26153,46.28890,-85.95030,214,11/17/1999,10/29/2018,2,22
Sequoia NP,SEQU1,IMPFSPED,CA,06107,36.48940,-118.82910,519,03/04/1992,10/29/2018,1,98
Shamrock Mine,SHMI1,IMPFSPED,CO,08067,37.30380,-107.48420,2351,08/01/2004,10/29/2018,1,25544
Shenandoah NP,SHEN1,IMPFSPED,VA,51113,38.52290,-78.43480,1079,03/02/1988,10/29/2018,1,6
Shining Rock Wilderness,SHRO1,IMPFSPED,NC,37087,35.39370,-82.77440,1617,06/01/1994,10/29/2018,1,11
Sierra Ancha,SIAN1,IMPFSPED,AZ,04007,34.09080,-110.94210,1600,02/09/2000,12/03/2017,1,45
Sikes,SIKE1,IMPFSPED,LA,22127,32.05740,-92.43500,45,03/02/2001,12/31/2010,1,143
Simeonof,SIME1,IMPFSPED,AK,02013,55.32550,-160.50630,57,09/13/2001,10/29/2018,1,105
Sipsey Wilderness,SIPS1,IMPFSPED,AL,01079,34.34330,-87.33880,286,03/04/1992,10/29/2018,1,21
Snoqualmie Pass,SNPA1,IMPFSPED,WA,53037,47.42200,-121.42590,1049,06/02/1993,10/29/2018,1,80
South Dekalb,ATLA1,IMPFSPED,GA,13089,33.68800,-84.29030,243,03/01/2004,10/29/2018,1,25531
South Lake Tahoe,SOLA1,IMPFSPED,CA,06017,38.93330,-119.96670,1900,03/01/1989,12/29/1999,1,186
Spokane Res.,SPOK1,IMPFSPED,WA,53063,47.90450,-117.86090,552,07/12/2001,06/30/2005,1,135
St. Marks,SAMA1,IMPFSPED,FL,12129,30.09260,-84.16140,7,08/16/2000,10/29/2018,2,17
Starkey,STAR1,IMPFSPED,OR,41061,45.22490,-118.51290,1259,03/15/2000,10/29/2018,1,76
Stilwell,STIL1,IMPFSPED,OK,40071,35.75078,-94.66956,300,04/23/2010,10/29/2018,1,94971
Storm Peak,STPE1,IMPFSPED,CO,08107,40.44500,-106.74000,3220,12/01/1993,12/29/1999,1,187
Sula Peak,SULA1,IMPFSPED,MT,30081,45.85980,-114.00010,1895,06/01/1994,10/29/2018,1,71
Swanquarter,SWAN1,IMPFSPED,NC,37095,35.45100,-76.20750,-3,06/10/2000,10/29/2018,2,14
Sycamore Canyon,SYCA1,IMPFSPED,AZ,04005,35.14060,-111.96920,2046,09/04/1991,10/30/2015,1,47
Sycamore Canyon,SYCA2,IMPFSPED,AZ,04005,35.16390,-111.98230,2046,10/24/2015,10/29/2018,1,100880
Tallgrass,TALL1,IMPFSPED,KS,20017,38.43410,-96.56020,390,09/02/2002,10/29/2018,1,155
Theodore Roosevelt,THRO1,IMPFSPED,ND,38007,46.89480,-103.37770,852,12/15/1999,10/29/2018,1,61
Three Sisters Wilderness,THSI1,IMPFSPED,OR,41039,44.29100,-122.04340,885,06/02/1993,10/29/2018,1,84
Thunder Basin,THBA1,IMPFSPED,WY,56005,44.66340,-105.28740,1195,06/01/2002,10/29/2018,1,164
Tonto NM,TONT1,IMPFSPED,AZ,04007,33.65480,-111.10680,775,03/02/1988,10/29/2018,1,44
Trapper Creek,TRCR1,IMPFSPED,AK,02170,62.31530,-150.31560,155,09/13/2001,10/29/2018,2,112
Trinity,TRIN1,IMPFSPED,CA,06105,40.78640,-122.80460,1014,10/18/2000,10/29/2018,1,104
Tuxedni,TUXE1,IMPFSPED,AK,02122,59.99250,-152.66560,15,12/03/2001,01/12/2015,1,103
UL Bend,ULBE1,IMPFSPED,MT,30027,47.58227,-108.71964,891,01/26/2000,10/29/2018,1,64
Upper Buffalo Wilderness,UPBU1,IMPFSPED,AR,05101,35.82580,-93.20300,722,12/04/1991,10/29/2018,1,27
Viking Lake,VILA1,IMPFSPED,IA,19137,40.96900,-95.04500,371,05/08/2002,10/29/2018,1,149
Virgin Islands NP,VIIS1,IMPFSPED,VI,78020,18.33630,-64.79620,51,09/01/1990,11/27/2017,1,106
Voyageurs NP #1,VOYA1,IMPFSPED,MN,27137,48.41320,-92.83030,425,03/02/1988,12/29/1999,1,24
Voyageurs NP #2,VOYA2,IMPFSPED,MN,27137,48.41260,-92.82860,429,03/02/1988,10/29/2018,1,188
Walker River Paiute Tribe,WARI1,IMPFSPED,NV,32021,38.95190,-118.81460,1250,06/02/2003,10/31/2005,1,521
Washington D.C.,WASH1,IMPFSPED,DC,11001,38.87620,-77.03440,15,03/02/1988,06/08/2015,1,120
Weminuche Wilderness,WEMI1,IMPFSPED,CO,08111,37.65940,-107.79988,2750,03/02/1988,10/29/2018,1,55
Wheeler Peak,WHPE1,IMPFSPED,NM,35055,36.58540,-105.45200,3366,08/16/2000,10/29/2018,1,35
White Mountain,WHIT1,IMPFSPED,NM,35027,33.46870,-105.53490,2063,12/03/2001,10/29/2018,1,37
White Pass,WHPA1,IMPFSPED,WA,53041,46.62430,-121.38810,1827,02/16/2000,10/29/2018,1,79
White River NF,WHRI1,IMPFSPED,CO,08097,39.15360,-106.82090,3413,06/02/1993,10/29/2018,1,56
Wichita Mountains,WIMO1,IMPFSPED,OK,40031,34.73230,-98.71300,509,03/02/2001,10/29/2018,1,30
Wind Cave,WICA1,IMPFSPED,SD,46033,43.55760,-103.48380,1296,12/15/1999,10/29/2018,2,60
Wrightwood,WRIG1,IMPFSPED,CA,06071,34.37892,-117.69211,2106,10/01/2009,10/15/2012,1,59990
Yellowstone NP 1,YELL1,IMPFSPED,WY,56039,44.56540,-110.40030,2442,03/09/1988,12/29/1999,1,66
Yellowstone NP 2,YELL2,IMPFSPED,WY,56039,44.56530,-110.40020,2425,03/02/1988,10/29/2018,1,189
Yosemite NP,YOSE1,IMPFSPED,CA,06043,37.71330,-119.70610,1603,03/02/1988,10/29/2018,2,98215
Yosemite NP,YOSEX,IMPFSPED,CA,06043,37.71330,-119.70610,1603,11/02/2012,07/29/2015,1,96
Zion,ZION1,IMPFSPED,UT,49053,37.45910,-113.22430,1545,03/25/2000,08/22/2004,1,51
Zion Canyon,ZICA1,IMPFSPED,UT,49053,37.19830,-113.15080,1215,12/01/2002,10/29/2018,1,513
